SL-16 R/B               
1 24298U 96051B   26157.76250311  .00000132  00000+0  97896-4 0  9990
2 24298  70.7634 346.7124 0014571 352.8339   7.2570 14.12442526534220
ORBVIEW 2 (SEASTAR)     
1 24883U 97037A   26157.21657493  .00000294  00000+0  11833-3 0  9992
2 24883  98.8681 323.9323 0002840 139.2437 220.8961 14.35547902521179
SL-16 R/B               
1 25400U 98043G   26157.62806238  .00000060  00000+0  44087-4 0  9993
2 25400  98.8359 111.6968 0010826 113.9621 246.2693 14.26066813451668
SL-16 R/B               
1 25407U 98045B   26157.78230933  .00000110  00000+0  79799-4 0  9996
2 25407  71.0120 354.2122 0009537 253.9614 106.0459 14.16204379439710
ISS (ZARYA)             
1 25544U 98067A   26157.86947977  .00009276  00000+0  17237-3 0  9994
2 25544  51.6338 351.1688 0006978 142.0049 218.1433 15.49642340570158
CZ-4B R/B               
1 25732U 99025C   26157.86008347  .00000041  00000+0  40214-4 0  9990
2 25732  98.6488 199.9581 0038258  88.5039  84.6770 14.18281720400803
OKEAN-O                 
1 25860U 99039A   26157.60111150  .00000716  00000+0  10050-3 0  9999
2 25860  97.9319 216.5201 0001859  79.5261 280.6160 14.80454839447544
SL-16 R/B               
1 25861U 99039B   26157.63275002  .00000515  00000+0  71888-4 0  9994
2 25861  97.9842 216.5254 0014088 333.8280  26.2219 14.81834725450033
DELTA 2 R/B             
1 25876U 99041E   26157.69998598  .00000798  00000+0  16610-3 0  9995
2 25876  51.7661 305.6881 0500993 251.0146 103.5876 14.11997056375606
HELIOS 1B               
1 25977U 99064A   26157.62108027  .00001593  00000+0  18005-3 0  9999
2 25977  98.1622  62.4548 0002317 106.6511 253.4959 14.87978310698482
TERRA                   
1 25994U 99068A   26157.89211196  .00000405  00000+0  91438-4 0  9996
2 25994  97.9460 207.8461 0000877 242.1878 231.5569 14.61094933408102
SL-16 R/B               
1 26070U 00006B   26157.60888316 -.00000146  00000+0 -49904-4 0  9994
2 26070  71.0034 270.8671 0015006  39.8042 320.4179 14.15837134361149
TITAN 4B R/B            
1 26474U 00047B   26157.79438736  .00003566  00000+0  22123-3 0  9994
2 26474  67.9877 149.8254 0045506 297.5657  62.0873 15.10136546406360
ENVISAT                 
1 27386U 02009A   26157.48304270  .00000113  00000+0  50473-4 0  9993
2 27386  98.3830 109.0406 0001329  91.0694  27.1263 14.39062351271941
IDEFIX & ARIANE 42P R/B 
1 27422U 02021B   26157.57206554  .00000248  00000+0  11090-3 0  9994
2 27422  98.5941  95.1704 0010642 288.5791  71.4235 14.31077154256732
AQUA                    
1 27424U 02022A   26157.86210310  .00000870  00000+0  18286-3 0  9999
2 27424  98.4272 126.9391 0001507  55.3541  29.1016 14.62142370281763
CZ-4B R/B               
1 27432U 02024C   26157.64092704  .00000050  00000+0  48237-4 0  9991
2 27432  98.8703 210.5289 0051007 129.5946 344.9197 14.14562687241818
MIDORI II (ADEOS-II)    
1 27597U 02056A   26157.63780709  .00000303  00000+0  13688-3 0  9998
2 27597  98.7873 116.8083 0002212  91.6714 268.4721 14.29343868223001
H-2A R/B                
1 27601U 02056E   26157.63582756  .00000231  00000+0  95605-4 0  9996
2 27601  98.3308 114.6950 0068876 256.5066 277.2195 14.33817570226855
CZ-4B R/B               
1 28059U 03049C   26157.71037628  .00000364  00000+0  94928-4 0  9993
2 28059  98.6896 156.1399 0047353 321.2391  38.5411 14.55093185199540
CZ-2C R/B               
1 28222U 04012C   26157.37962722  .00122901  00000+0  75160-3 0  9998
2 28222  97.7089 231.8036 0008825 332.1519  27.9272 15.76941093218193
SL-16 R/B               
1 28353U 04021B   26157.41307141 -.00000166  00000+0 -61348-4 0  9990
2 28353  71.0024  46.3008 0007476 267.0875  92.9392 14.14612822135382
CZ-4B R/B               
1 28415U 04035C   26157.60676252  .00009133  00000+0  30796-3 0  9990
2 28415  97.3371 190.8005 0031242  15.9823 344.2396 15.30468220193505
CZ-2C R/B               
1 28480U 04046B   26157.60386919  .00000101  00000+0  53208-4 0  9992
2 28480  98.1952  67.0453 0138108 251.7914 106.8194 14.27024305121183
ARIANE 5 R/B            
1 28499U 04049H   26157.75674786  .00000858  00000+0  10028-3 0  9994
2 28499  98.2717 329.6076 0085071  62.8759 298.1100 14.85434487159014
CZ-2D R/B               
1 28738U 05024B   26157.56840795  .00065414  00000+0  57933-3 0  9993
2 28738  97.3492 176.4758 0005133  75.7936 284.3895 15.68398870153677
ALOS (DAICHI)           
1 28931U 06002A   26157.47219561  .00001243  00000+0  21551-3 0  9993
2 28931  98.1318 113.0734 0001847  63.0548 297.0846 14.70029043 86527
H-2A R/B                
1 28932U 06002B   26157.44183326  .00008972  00000+0  43195-3 0  9994
2 28932  98.2559 312.3010 0049769 299.7774  59.8513 15.17929482107898
RESURS-DK 1             
1 29228U 06021A   26157.85531292  .00002607  00000+0  15267-3 0  9996
2 29228  69.9339   6.2973 0006334 300.4330  59.6209 15.13170757101011
CZ-4B R/B               
1 29507U 06046C   26157.83608855  .00004412  00000+0  21954-3 0  9997
2 29507  97.5454 202.4753 0031500 320.4605  39.4331 15.17707544 73566
CZ-2C R/B               
1 31114U 07010B   26157.56309736  .00000113  00000+0  70506-4 0  9994
2 31114  98.4090 266.4343 0059635  36.8440 323.6813 14.20273789992338
