OBJECT_NAME,OBJECT_ID,EPOCH,MEAN_MOTION,ECCENTRICITY,INCLINATION,RA_OF_ASC_NODE,ARG_OF_PERICENTER,MEAN_ANOMALY,EPHEMERIS_TYPE,CLASSIFICATION_TYPE,NORAD_CAT_ID,ELEMENT_SET_NO,REV_AT_EPOCH,BSTAR,MEAN_MOTION_DOT,MEAN_MOTION_DDOT
SL-16 R/B,1996-051B,2026-06-06T18:18:00.268704,14.12442526,.0014571,70.7634,346.7124,352.8339,7.2570,0,U,24298,999,53422,.97896E-4,.132E-5,0
ORBVIEW 2 (SEASTAR),1997-037A,2026-06-06T05:11:52.073952,14.35547902,.00028401,98.8681,323.9323,139.2437,220.8961,0,U,24883,999,52117,.11832729E-3,.294E-5,0
SL-16 R/B,1998-043G,2026-06-06T15:04:24.589632,14.26066813,.0010826,98.8359,111.6968,113.9621,246.2693,0,U,25400,999,45166,.44087E-4,.6E-6,0
SL-16 R/B,1998-045B,2026-06-06T18:46:31.526112,14.16204379,.0009537,71.0120,354.2122,253.9614,106.0459,0,U,25407,999,43971,.79799E-4,.11E-5,0
ISS (ZARYA),1998-067A,2026-06-06T20:52:03.052128,15.49642340,.0006978,51.6338,351.1688,142.0049,218.1433,0,U,25544,999,57015,.17237E-3,.9276E-4,0
CZ-4B R/B,1999-025C,2026-06-06T20:38:31.211808,14.18281720,.0038258,98.6488,199.9581,88.5039,84.6770,0,U,25732,999,40080,.40214E-4,.41E-6,0
OKEAN-O,1999-039A,2026-06-06T14:25:36.033600,14.80454839,.0001859,97.9319,216.5201,79.5261,280.6160,0,U,25860,999,44754,.1005E-3,.716E-5,0
SL-16 R/B,1999-039B,2026-06-06T15:11:09.601728,14.81834725,.0014088,97.9842,216.5254,333.8280,26.2219,0,U,25861,999,45003,.71888E-4,.515E-5,0
DELTA 2 R/B,1999-041E,2026-06-06T16:47:58.788672,14.11997056,.0500993,51.7661,305.6881,251.0146,103.5876,0,U,25876,999,37560,.1661E-3,.798E-5,0
HELIOS 1B,1999-064A,2026-06-06T14:54:21.335328,14.87978310,.0002317,98.1622,62.4548,106.6511,253.4959,0,U,25977,999,69848,.18005E-3,.1593E-4,0
TERRA,1999-068A,2026-06-06T21:24:38.473344,14.61094933,.0000877,97.9460,207.8461,242.1878,231.5569,0,U,25994,999,40810,.91438E-4,.405E-5,0
SL-16 R/B,2000-006B,2026-06-06T14:36:47.505024,14.15837134,.0015006,71.0034,270.8671,39.8042,320.4179,0,U,26070,999,36114,-.49904E-4,-.146E-5,0
TITAN 4B R/B,2000-047B,2026-06-06T19:03:55.067904,15.10136546,.0045506,67.9877,149.8254,297.5657,62.0873,0,U,26474,999,40636,.22123E-3,.3566E-4,0
ENVISAT,2002-009A,2026-06-06T11:35:34.889280,14.39062351,.00013298,98.3830,109.0406,91.0694,27.1263,0,U,27386,999,27194,.50473411E-4,.113E-5,0
IDEFIX & ARIANE 42P R/B,2002-021B,2026-06-06T13:43:46.462656,14.31077154,.0010642,98.5941,95.1704,288.5791,71.4235,0,U,27422,999,25673,.1109E-3,.248E-5,0
AQUA,2002-022A,2026-06-06T20:41:25.707840,14.62142370,.0001507,98.4272,126.9391,55.3541,29.1016,0,U,27424,999,28176,.18286E-3,.87E-5,0
CZ-4B R/B,2002-024C,2026-06-06T15:22:56.096256,14.14562687,.0051007,98.8703,210.5289,129.5946,344.9197,0,U,27432,999,24181,.48237E-4,.5E-6,0
MIDORI II (ADEOS-II),2002-056A,2026-06-06T15:18:26.532576,14.29343868,.0002212,98.7873,116.8083,91.6714,268.4721,0,U,27597,999,22300,.13688E-3,.303E-5,0
H-2A R/B,2002-056E,2026-06-06T15:15:35.501184,14.33817570,.0068876,98.3308,114.6950,256.5066,277.2195,0,U,27601,999,22685,.95605E-4,.231E-5,0
CZ-4B R/B,2003-049C,2026-06-06T17:02:56.510592,14.55093185,.0047353,98.6896,156.1399,321.2391,38.5411,0,U,28059,999,19954,.94928E-4,.364E-5,0
CZ-2C R/B,2004-012C,2026-06-06T09:06:39.791808,15.76941093,.00088254,97.7089,231.8036,332.1519,27.9272,0,U,28222,999,21819,.75160432E-3,.122901E-2,0
SL-16 R/B,2004-021B,2026-06-06T09:54:49.369824,14.14612822,.00074769,71.0024,46.3008,267.0875,92.9392,0,U,28353,999,13538,-.61348062E-4,-.166E-5,0
CZ-4B R/B,2004-035C,2026-06-06T14:33:44.281728,15.30468220,.0031242,97.3371,190.8005,15.9823,344.2396,0,U,28415,999,19350,.30796E-3,.9133E-4,0
CZ-2C R/B,2004-046B,2026-06-06T14:29:34.298016,14.27024305,.0138108,98.1952,67.0453,251.7914,106.8194,0,U,28480,999,12118,.53208E-4,.101E-5,0
ARIANE 5 R/B,2004-049H,2026-06-06T18:09:43.015104,14.85434487,.0085071,98.2717,329.6076,62.8759,298.1100,0,U,28499,999,15901,.10028E-3,.858E-5,0
CZ-2D R/B,2005-024B,2026-06-06T13:38:30.446880,15.68398870,.0005133,97.3492,176.4758,75.7936,284.3895,0,U,28738,999,15367,.57933E-3,.65414E-3,0
ALOS (DAICHI),2006-002A,2026-06-06T11:19:57.700704,14.70029043,.0001847,98.1318,113.0734,63.0548,297.0846,0,U,28931,999,8652,.21550934E-3,.1243E-4,0
H-2A R/B,2006-002B,2026-06-06T10:36:14.393664,15.17929482,.00497692,98.2559,312.3010,299.7774,59.8513,0,U,28932,999,10789,.43195494E-3,.8972E-4,0
RESURS-DK 1,2006-021A,2026-06-06T20:31:39.036288,15.13170757,.0006334,69.9339,6.2973,300.4330,59.6209,0,U,29228,999,10101,.15267E-3,.2607E-4,0
CZ-4B R/B,2006-046C,2026-06-06T20:03:58.050720,15.17707544,.00315,97.5454,202.4753,320.4605,39.4331,0,U,29507,999,7356,.21954E-3,.4412E-4,0
CZ-2C R/B,2007-010B,2026-06-06T13:30:51.611904,14.20273789,.0059635,98.4090,266.4343,36.8440,323.6813,0,U,31114,999,99233,.70506E-4,.113E-5,0
